ALOS (DAICHI)           
1 28931U 06002A   26022.82086509  .00002620  00000+0  44878-3 0  9994
2 28931  98.1154 339.0351 0002209  82.6479 277.4977 14.69638267 66744
H-2A R/B                
1 28932U 06002B   26022.86656422  .00009314  00000+0  47835-3 0  9999
2 28932  98.2345 166.0093 0054034  38.1795 322.3243 15.15467703 87497
RESURS-DK 1             
1 29228U 06021A   26022.90556540  .00003549  00000+0  20980-3 0  9990
2 29228  69.9349 355.4278 0005150 219.3828 140.6965 15.12436068 80604
CZ-4B R/B               
1 29507U 06046C   26022.55744359  .00006421  00000+0  32930-3 0  9995
2 29507  97.5674  67.5859 0035077  68.5408 291.9560 15.16361220 53058
CZ-2C R/B               
1 31114U 07010B   26022.79220755  .00000266  00000+0  14099-3 0  9996
2 31114  98.3971 138.3774 0060037  68.1816 292.5734 14.20228547973206
COSMO-SKYMED 1          
1 31598U 07023A   26022.99170471  .00005069  00000+0  45563-3 0  9993
2 31598  97.8840 213.6729 0001124  89.6212 270.5137 14.96130314  8072
COSMOS 2428             
1 31792U 07029A   26022.51759763  .00000484  00000+0  28551-3 0  9994
2 31792  70.9401 300.2669 0006149 329.6203  30.4561 14.12917393957578
SL-16 R/B               
1 31793U 07029B   26022.67280421 -.00000081  00000+0 -16910-4 0  9994
2 31793  70.9743 269.1157 0002008 272.7026 117.6877 14.14822256958860
KORONAS-FOTON           
1 33504U 09003A   26022.58186384  .00013661  00000+0  31793-3 0  9994
2 33504  82.4332 323.7601 0010066 334.8972  25.1784 15.42106069938630
CZ-2C R/B               
1 37731U 11030B   26022.62635442  .00002299  00000+0  29609-3 0  9990
2 37731  97.8476 340.8441 0053654 138.9723  33.7332 14.81040362783271
H-2A R/B                
1 38341U 12025E   26022.88022237  .00003745  00000+0  34377-3 0  9998
2 38341  98.4656 346.3041 0046090 102.1469 258.4918 14.94745384741370
SHIJIAN-16 (SJ-16)      
1 39358U 13057A   26022.97280169  .00003118  00000+0  30802-3 0  9996
2 39358  74.9720 271.6279 0017651 224.4138 135.5635 14.92187742664680
