CCSDS_OMM_VERS = 2.0
CREATION_DATE  = 
ORIGINATOR     = 

OBJECT_NAME    = ALOS (DAICHI)
OBJECT_ID      = 2006-002A
CENTER_NAME    = EARTH
REF_FRAME      = TEME
TIME_SYSTEM    = UTC
MEAN_ELEMENT_THEORY = SGP/SGP4

EPOCH          = 2026-01-22T19:42:02.743776
MEAN_MOTION    = 14.69638267
ECCENTRICITY   = .0002209
INCLINATION    = 98.1154
RA_OF_ASC_NODE = 339.0351
ARG_OF_PERICENTER = 82.6479
MEAN_ANOMALY   = 277.4977

EPHEMERIS_TYPE = 0
CLASSIFICATION_TYPE = U
NORAD_CAT_ID   = 28931
ELEMENT_SET_NO = 999
REV_AT_EPOCH   = 6674
BSTAR          = .44878327E-3
MEAN_MOTION_DOT = .262E-4
MEAN_MOTION_DDOT = 0

CCSDS_OMM_VERS = 2.0
CREATION_DATE  = 
ORIGINATOR     = 

OBJECT_NAME    = H-2A R/B
OBJECT_ID      = 2006-002B
CENTER_NAME    = EARTH
REF_FRAME      = TEME
TIME_SYSTEM    = UTC
MEAN_ELEMENT_THEORY = SGP/SGP4

EPOCH          = 2026-01-22T20:47:51.148608
MEAN_MOTION    = 15.15467703
ECCENTRICITY   = .00540344
INCLINATION    = 98.2345
RA_OF_ASC_NODE = 166.0093
ARG_OF_PERICENTER = 38.1795
MEAN_ANOMALY   = 322.3243

EPHEMERIS_TYPE = 0
CLASSIFICATION_TYPE = U
NORAD_CAT_ID   = 28932
ELEMENT_SET_NO = 999
REV_AT_EPOCH   = 8749
BSTAR          = .47834639E-3
MEAN_MOTION_DOT = .9314E-4
MEAN_MOTION_DDOT = 0

CCSDS_OMM_VERS = 2.0
CREATION_DATE  = 
ORIGINATOR     = 

OBJECT_NAME    = RESURS-DK 1
OBJECT_ID      = 2006-021A
CENTER_NAME    = EARTH
REF_FRAME      = TEME
TIME_SYSTEM    = UTC
MEAN_ELEMENT_THEORY = SGP/SGP4

EPOCH          = 2026-01-22T21:44:00.850560
MEAN_MOTION    = 15.12436068
ECCENTRICITY   = .00051506
INCLINATION    = 69.9349
RA_OF_ASC_NODE = 355.4278
ARG_OF_PERICENTER = 219.3828
MEAN_ANOMALY   = 140.6965

EPHEMERIS_TYPE = 0
CLASSIFICATION_TYPE = U
NORAD_CAT_ID   = 29228
ELEMENT_SET_NO = 999
REV_AT_EPOCH   = 8060
BSTAR          = .20979985E-3
MEAN_MOTION_DOT = .3549E-4
MEAN_MOTION_DDOT = 0

CCSDS_OMM_VERS = 2.0
CREATION_DATE  = 
ORIGINATOR     = 

OBJECT_NAME    = CZ-4B R/B
OBJECT_ID      = 2006-046C
CENTER_NAME    = EARTH
REF_FRAME      = TEME
TIME_SYSTEM    = UTC
MEAN_ELEMENT_THEORY = SGP/SGP4

EPOCH          = 2026-01-22T13:22:43.126176
MEAN_MOTION    = 15.16361220
ECCENTRICITY   = .00350779
INCLINATION    = 97.5674
RA_OF_ASC_NODE = 67.5859
ARG_OF_PERICENTER = 68.5408
MEAN_ANOMALY   = 291.9560

EPHEMERIS_TYPE = 0
CLASSIFICATION_TYPE = U
NORAD_CAT_ID   = 29507
ELEMENT_SET_NO = 999
REV_AT_EPOCH   = 5305
BSTAR          = .32929805E-3
MEAN_MOTION_DOT = .6421E-4
MEAN_MOTION_DDOT = 0

CCSDS_OMM_VERS = 2.0
CREATION_DATE  = 
ORIGINATOR     = 

OBJECT_NAME    = CZ-2C R/B
OBJECT_ID      = 2007-010B
CENTER_NAME    = EARTH
REF_FRAME      = TEME
TIME_SYSTEM    = UTC
MEAN_ELEMENT_THEORY = SGP/SGP4

EPOCH          = 2026-01-22T19:00:46.732320
MEAN_MOTION    = 14.20228547
ECCENTRICITY   = .00600371
INCLINATION    = 98.3971
RA_OF_ASC_NODE = 138.3774
ARG_OF_PERICENTER = 68.1816
MEAN_ANOMALY   = 292.5734

EPHEMERIS_TYPE = 0
CLASSIFICATION_TYPE = U
NORAD_CAT_ID   = 31114
ELEMENT_SET_NO = 999
REV_AT_EPOCH   = 97320
BSTAR          = .14099228E-3
MEAN_MOTION_DOT = .266E-5
MEAN_MOTION_DDOT = 0

CCSDS_OMM_VERS = 2.0
CREATION_DATE  = 
ORIGINATOR     = 

OBJECT_NAME    = COSMO-SKYMED 1
OBJECT_ID      = 2007-023A
CENTER_NAME    = EARTH
REF_FRAME      = TEME
TIME_SYSTEM    = UTC
MEAN_ELEMENT_THEORY = SGP/SGP4

EPOCH          = 2026-01-22T23:48:03.286944
MEAN_MOTION    = 14.96130314
ECCENTRICITY   = .00011245
INCLINATION    = 97.8840
RA_OF_ASC_NODE = 213.6729
ARG_OF_PERICENTER = 89.6212
MEAN_ANOMALY   = 270.5137

EPHEMERIS_TYPE = 0
CLASSIFICATION_TYPE = U
NORAD_CAT_ID   = 31598
ELEMENT_SET_NO = 999
REV_AT_EPOCH   = 807
BSTAR          = .45563121E-3
MEAN_MOTION_DOT = .5069E-4
MEAN_MOTION_DDOT = 0

CCSDS_OMM_VERS = 2.0
CREATION_DATE  = 
ORIGINATOR     = 

OBJECT_NAME    = COSMOS 2428
OBJECT_ID      = 2007-029A
CENTER_NAME    = EARTH
REF_FRAME      = TEME
TIME_SYSTEM    = UTC
MEAN_ELEMENT_THEORY = SGP/SGP4

EPOCH          = 2026-01-22T12:25:20.435232
MEAN_MOTION    = 14.12917393
ECCENTRICITY   = .0006149
INCLINATION    = 70.9401
RA_OF_ASC_NODE = 300.2669
ARG_OF_PERICENTER = 329.6203
MEAN_ANOMALY   = 30.4561

EPHEMERIS_TYPE = 0
CLASSIFICATION_TYPE = U
NORAD_CAT_ID   = 31792
ELEMENT_SET_NO = 999
REV_AT_EPOCH   = 95757
BSTAR          = .28550526E-3
MEAN_MOTION_DOT = .484E-5
MEAN_MOTION_DDOT = 0

CCSDS_OMM_VERS = 2.0
CREATION_DATE  = 
ORIGINATOR     = 

OBJECT_NAME    = SL-16 R/B
OBJECT_ID      = 2007-029B
CENTER_NAME    = EARTH
REF_FRAME      = TEME
TIME_SYSTEM    = UTC
MEAN_ELEMENT_THEORY = SGP/SGP4

EPOCH          = 2026-01-22T16:08:50.283744
MEAN_MOTION    = 14.14822256
ECCENTRICITY   = .00020086
INCLINATION    = 70.9743
RA_OF_ASC_NODE = 269.1157
ARG_OF_PERICENTER = 272.7026
MEAN_ANOMALY   = 117.6877

EPHEMERIS_TYPE = 0
CLASSIFICATION_TYPE = U
NORAD_CAT_ID   = 31793
ELEMENT_SET_NO = 999
REV_AT_EPOCH   = 95886
BSTAR          = -.16909869E-4
MEAN_MOTION_DOT = -.81E-6
MEAN_MOTION_DDOT = 0

CCSDS_OMM_VERS = 2.0
CREATION_DATE  = 
ORIGINATOR     = 

OBJECT_NAME    = KORONAS-FOTON
OBJECT_ID      = 2009-003A
CENTER_NAME    = EARTH
REF_FRAME      = TEME
TIME_SYSTEM    = UTC
MEAN_ELEMENT_THEORY = SGP/SGP4

EPOCH          = 2026-01-22T13:57:53.035776
MEAN_MOTION    = 15.42106069
ECCENTRICITY   = .0010066
INCLINATION    = 82.4332
RA_OF_ASC_NODE = 323.7601
ARG_OF_PERICENTER = 334.8972
MEAN_ANOMALY   = 25.1784

EPHEMERIS_TYPE = 0
CLASSIFICATION_TYPE = U
NORAD_CAT_ID   = 33504
ELEMENT_SET_NO = 999
REV_AT_EPOCH   = 93863
BSTAR          = .31793031E-3
MEAN_MOTION_DOT = .13661E-3
MEAN_MOTION_DDOT = 0

CCSDS_OMM_VERS = 2.0
CREATION_DATE  = 
ORIGINATOR     = 

OBJECT_NAME    = CZ-2C R/B
OBJECT_ID      = 2011-030B
CENTER_NAME    = EARTH
REF_FRAME      = TEME
TIME_SYSTEM    = UTC
MEAN_ELEMENT_THEORY = SGP/SGP4

EPOCH          = 2026-01-22T15:01:57.021888
MEAN_MOTION    = 14.81040362
ECCENTRICITY   = .0053654
INCLINATION    = 97.8476
RA_OF_ASC_NODE = 340.8441
ARG_OF_PERICENTER = 138.9723
MEAN_ANOMALY   = 33.7332

EPHEMERIS_TYPE = 0
CLASSIFICATION_TYPE = U
NORAD_CAT_ID   = 37731
ELEMENT_SET_NO = 999
REV_AT_EPOCH   = 78327
BSTAR          = .29608632E-3
MEAN_MOTION_DOT = .2299E-4
MEAN_MOTION_DDOT = 0

CCSDS_OMM_VERS = 2.0
CREATION_DATE  = 
ORIGINATOR     = 

OBJECT_NAME    = H-2A R/B
OBJECT_ID      = 2012-025E
CENTER_NAME    = EARTH
REF_FRAME      = TEME
TIME_SYSTEM    = UTC
MEAN_ELEMENT_THEORY = SGP/SGP4

EPOCH          = 2026-01-22T21:07:31.212768
MEAN_MOTION    = 14.94745384
ECCENTRICITY   = .00460903
INCLINATION    = 98.4656
RA_OF_ASC_NODE = 346.3041
ARG_OF_PERICENTER = 102.1469
MEAN_ANOMALY   = 258.4918

EPHEMERIS_TYPE = 0
CLASSIFICATION_TYPE = U
NORAD_CAT_ID   = 38341
ELEMENT_SET_NO = 999
REV_AT_EPOCH   = 74137
BSTAR          = .34377008E-3
MEAN_MOTION_DOT = .3745E-4
MEAN_MOTION_DDOT = 0

CCSDS_OMM_VERS = 2.0
CREATION_DATE  = 
ORIGINATOR     = 

OBJECT_NAME    = SHIJIAN-16 (SJ-16)
OBJECT_ID      = 2013-057A
CENTER_NAME    = EARTH
REF_FRAME      = TEME
TIME_SYSTEM    = UTC
MEAN_ELEMENT_THEORY = SGP/SGP4

EPOCH          = 2026-01-22T23:20:50.066016
MEAN_MOTION    = 14.92187742
ECCENTRICITY   = .00176511
INCLINATION    = 74.9720
RA_OF_ASC_NODE = 271.6279
ARG_OF_PERICENTER = 224.4138
MEAN_ANOMALY   = 135.5635

EPHEMERIS_TYPE = 0
CLASSIFICATION_TYPE = U
NORAD_CAT_ID   = 39358
ELEMENT_SET_NO = 999
REV_AT_EPOCH   = 66468
BSTAR          = .30802437E-3
MEAN_MOTION_DOT = .3118E-4
MEAN_MOTION_DDOT = 0

